CCSDS_OMM_VERS = 2.0
CREATION_DATE  = 
ORIGINATOR     = 

OBJECT_NAME    = STARLINK-36870
OBJECT_ID      = 2026-035U
CENTER_NAME    = EARTH
REF_FRAME      = TEME
TIME_SYSTEM    = UTC
MEAN_ELEMENT_THEORY = SGP/SGP4

EPOCH          = 2026-03-03T14:00:03.000384
MEAN_MOTION    = 16.01999928
ECCENTRICITY   = .0001237
INCLINATION    = 97.2757
RA_OF_ASC_NODE = 354.4569
ARG_OF_PERICENTER = 79.6170
MEAN_ANOMALY   = 57.8697

EPHEMERIS_TYPE = 0
CLASSIFICATION_TYPE = U
NORAD_CAT_ID   = 67897
ELEMENT_SET_NO = 999
REV_AT_EPOCH   = 277
BSTAR          = -.18492E-2
MEAN_MOTION_DOT = -.1047048E-1
MEAN_MOTION_DDOT = .36513E-3

CCSDS_OMM_VERS = 2.0
CREATION_DATE  = 
ORIGINATOR     = 

OBJECT_NAME    = STARLINK-36810
OBJECT_ID      = 2026-035V
CENTER_NAME    = EARTH
REF_FRAME      = TEME
TIME_SYSTEM    = UTC
MEAN_ELEMENT_THEORY = SGP/SGP4

EPOCH          = 2026-03-03T14:00:03.000384
MEAN_MOTION    = 16.02088062
ECCENTRICITY   = .0001414
INCLINATION    = 97.2756
RA_OF_ASC_NODE = 354.4581
ARG_OF_PERICENTER = 104.7313
MEAN_ANOMALY   = 36.1055

EPHEMERIS_TYPE = 0
CLASSIFICATION_TYPE = U
NORAD_CAT_ID   = 67898
ELEMENT_SET_NO = 999
REV_AT_EPOCH   = 277
BSTAR          = -.18187E-2
MEAN_MOTION_DOT = -.1035164E-1
MEAN_MOTION_DDOT = .35786E-3

CCSDS_OMM_VERS = 2.0
CREATION_DATE  = 
ORIGINATOR     = 

OBJECT_NAME    = STARLINK-36878
OBJECT_ID      = 2026-035W
CENTER_NAME    = EARTH
REF_FRAME      = TEME
TIME_SYSTEM    = UTC
MEAN_ELEMENT_THEORY = SGP/SGP4

EPOCH          = 2026-03-03T14:00:03.000384
MEAN_MOTION    = 16.02295648
ECCENTRICITY   = .0001204
INCLINATION    = 97.2753
RA_OF_ASC_NODE = 354.4610
ARG_OF_PERICENTER = 81.2545
MEAN_ANOMALY   = 66.2000

EPHEMERIS_TYPE = 0
CLASSIFICATION_TYPE = U
NORAD_CAT_ID   = 67899
ELEMENT_SET_NO = 999
REV_AT_EPOCH   = 277
BSTAR          = -.1814E-2
MEAN_MOTION_DOT = -.1044909E-1
MEAN_MOTION_DDOT = .365E-3

CCSDS_OMM_VERS = 2.0
CREATION_DATE  = 
ORIGINATOR     = 

OBJECT_NAME    = STARLINK-36361
OBJECT_ID      = 2026-035X
CENTER_NAME    = EARTH
REF_FRAME      = TEME
TIME_SYSTEM    = UTC
MEAN_ELEMENT_THEORY = SGP/SGP4

EPOCH          = 2026-03-03T14:00:03.000384
MEAN_MOTION    = 16.02394845
ECCENTRICITY   = .0001164
INCLINATION    = 97.2753
RA_OF_ASC_NODE = 354.4625
ARG_OF_PERICENTER = 79.3531
MEAN_ANOMALY   = 71.7281

EPHEMERIS_TYPE = 0
CLASSIFICATION_TYPE = U
NORAD_CAT_ID   = 67900
ELEMENT_SET_NO = 999
REV_AT_EPOCH   = 277
BSTAR          = -.17849E-2
MEAN_MOTION_DOT = -.1034176E-1
MEAN_MOTION_DDOT = .3585E-3

CCSDS_OMM_VERS = 2.0
CREATION_DATE  = 
ORIGINATOR     = 

OBJECT_NAME    = STARLINK-36336
OBJECT_ID      = 2026-035Y
CENTER_NAME    = EARTH
REF_FRAME      = TEME
TIME_SYSTEM    = UTC
MEAN_ELEMENT_THEORY = SGP/SGP4

EPOCH          = 2026-03-03T14:00:03.000384
MEAN_MOTION    = 16.02741017
ECCENTRICITY   = .0001307
INCLINATION    = 97.2756
RA_OF_ASC_NODE = 354.4675
ARG_OF_PERICENTER = 114.1337
MEAN_ANOMALY   = 47.9270

EPHEMERIS_TYPE = 0
CLASSIFICATION_TYPE = U
NORAD_CAT_ID   = 67901
ELEMENT_SET_NO = 999
REV_AT_EPOCH   = 282
BSTAR          = -.17695E-2
MEAN_MOTION_DOT = -.1046129E-1
MEAN_MOTION_DDOT = .36768E-3

CCSDS_OMM_VERS = 2.0
CREATION_DATE  = 
ORIGINATOR     = 

OBJECT_NAME    = STARLINK-36876
OBJECT_ID      = 2026-035Z
CENTER_NAME    = EARTH
REF_FRAME      = TEME
TIME_SYSTEM    = UTC
MEAN_ELEMENT_THEORY = SGP/SGP4

EPOCH          = 2026-03-03T14:00:03.000384
MEAN_MOTION    = 16.02501466
ECCENTRICITY   = .000148
INCLINATION    = 97.2758
RA_OF_ASC_NODE = 354.4647
ARG_OF_PERICENTER = 110.0559
MEAN_ANOMALY   = 44.1868

EPHEMERIS_TYPE = 0
CLASSIFICATION_TYPE = U
NORAD_CAT_ID   = 67902
ELEMENT_SET_NO = 999
REV_AT_EPOCH   = 277
BSTAR          = -.17898E-2
MEAN_MOTION_DOT = -.1043478E-1
MEAN_MOTION_DDOT = .36494E-3

CCSDS_OMM_VERS = 2.0
CREATION_DATE  = 
ORIGINATOR     = 

OBJECT_NAME    = STARLINK-36257
OBJECT_ID      = 2026-035AA
CENTER_NAME    = EARTH
REF_FRAME      = TEME
TIME_SYSTEM    = UTC
MEAN_ELEMENT_THEORY = SGP/SGP4

EPOCH          = 2026-03-03T14:00:03.000384
MEAN_MOTION    = 16.02611015
ECCENTRICITY   = .0001297
INCLINATION    = 97.2754
RA_OF_ASC_NODE = 354.4651
ARG_OF_PERICENTER = 96.7311
MEAN_ANOMALY   = 60.8311

EPHEMERIS_TYPE = 0
CLASSIFICATION_TYPE = U
NORAD_CAT_ID   = 67903
ELEMENT_SET_NO = 999
REV_AT_EPOCH   = 282
BSTAR          = -.17863E-2
MEAN_MOTION_DOT = -.104806E-1
MEAN_MOTION_DDOT = .36838E-3

CCSDS_OMM_VERS = 2.0
CREATION_DATE  = 
ORIGINATOR     = 

OBJECT_NAME    = STARLINK-36814
OBJECT_ID      = 2026-036A
CENTER_NAME    = EARTH
REF_FRAME      = TEME
TIME_SYSTEM    = UTC
MEAN_ELEMENT_THEORY = SGP/SGP4

EPOCH          = 2026-03-03T14:00:03.000384
MEAN_MOTION    = 15.81874735
ECCENTRICITY   = .0002588
INCLINATION    = 42.9944
RA_OF_ASC_NODE = 287.2332
ARG_OF_PERICENTER = 257.8558
MEAN_ANOMALY   = 76.1996

EPHEMERIS_TYPE = 0
CLASSIFICATION_TYPE = U
NORAD_CAT_ID   = 67904
ELEMENT_SET_NO = 999
REV_AT_EPOCH   = 266
BSTAR          = .12604E-2
MEAN_MOTION_DOT = .271573E-2
MEAN_MOTION_DDOT = 0

CCSDS_OMM_VERS = 2.0
CREATION_DATE  = 
ORIGINATOR     = 

OBJECT_NAME    = STARLINK-36729
OBJECT_ID      = 2026-036B
CENTER_NAME    = EARTH
REF_FRAME      = TEME
TIME_SYSTEM    = UTC
MEAN_ELEMENT_THEORY = SGP/SGP4

EPOCH          = 2026-03-03T14:00:03.000384
MEAN_MOTION    = 15.82031824
ECCENTRICITY   = .0002197
INCLINATION    = 42.9940
RA_OF_ASC_NODE = 287.2218
ARG_OF_PERICENTER = 267.0365
MEAN_ANOMALY   = 71.2388

EPHEMERIS_TYPE = 0
CLASSIFICATION_TYPE = U
NORAD_CAT_ID   = 67905
ELEMENT_SET_NO = 999
REV_AT_EPOCH   = 266
BSTAR          = -.27692E-4
MEAN_MOTION_DOT = -.6365E-4
MEAN_MOTION_DDOT = 0

CCSDS_OMM_VERS = 2.0
CREATION_DATE  = 
ORIGINATOR     = 

OBJECT_NAME    = STARLINK-36763
OBJECT_ID      = 2026-036C
CENTER_NAME    = EARTH
REF_FRAME      = TEME
TIME_SYSTEM    = UTC
MEAN_ELEMENT_THEORY = SGP/SGP4

EPOCH          = 2026-03-03T14:00:03.000384
MEAN_MOTION    = 15.82237110
ECCENTRICITY   = .0001602
INCLINATION    = 42.9940
RA_OF_ASC_NODE = 287.2113
ARG_OF_PERICENTER = 268.6022
MEAN_ANOMALY   = 73.8501

EPHEMERIS_TYPE = 0
CLASSIFICATION_TYPE = U
NORAD_CAT_ID   = 67906
ELEMENT_SET_NO = 999
REV_AT_EPOCH   = 266
BSTAR          = -.15544E-2
MEAN_MOTION_DOT = -.319381E-2
MEAN_MOTION_DDOT = 0

CCSDS_OMM_VERS = 2.0
CREATION_DATE  = 
ORIGINATOR     = 

OBJECT_NAME    = STARLINK-36742
OBJECT_ID      = 2026-036D
CENTER_NAME    = EARTH
REF_FRAME      = TEME
TIME_SYSTEM    = UTC
MEAN_ELEMENT_THEORY = SGP/SGP4

EPOCH          = 2026-03-03T14:00:03.000384
MEAN_MOTION    = 15.82545523
ECCENTRICITY   = .000234
INCLINATION    = 42.9941
RA_OF_ASC_NODE = 287.2010
ARG_OF_PERICENTER = 252.6007
MEAN_ANOMALY   = 93.9506

EPHEMERIS_TYPE = 0
CLASSIFICATION_TYPE = U
NORAD_CAT_ID   = 67907
ELEMENT_SET_NO = 999
REV_AT_EPOCH   = 266
BSTAR          = -.40453E-2
MEAN_MOTION_DOT = -.797969E-2
MEAN_MOTION_DDOT = 0

CCSDS_OMM_VERS = 2.0
CREATION_DATE  = 
ORIGINATOR     = 

OBJECT_NAME    = STARLINK-36827
OBJECT_ID      = 2026-036E
CENTER_NAME    = EARTH
REF_FRAME      = TEME
TIME_SYSTEM    = UTC
MEAN_ELEMENT_THEORY = SGP/SGP4

EPOCH          = 2026-03-03T14:00:03.000384
MEAN_MOTION    = 15.82780264
ECCENTRICITY   = .0001889
INCLINATION    = 42.9942
RA_OF_ASC_NODE = 287.1905
ARG_OF_PERICENTER = 261.1311
MEAN_ANOMALY   = 89.5316

EPHEMERIS_TYPE = 0
CLASSIFICATION_TYPE = U
NORAD_CAT_ID   = 67908
ELEMENT_SET_NO = 999
REV_AT_EPOCH   = 266
BSTAR          = -.51334E-2
MEAN_MOTION_DOT = -.999604E-2
MEAN_MOTION_DDOT = 0

